{"type": "FeatureCollection", "features": [ {"type": "Feature", "properties": {"norad_id": 35759, "name": "COSMOS 2251 DEB", "group": "cosmos-2251-debris", "lat": -73.21450199628292, "lon": 109.18219700892551, "alt_km": 666.4113163844577, "timestamp": "2025-12-11T22:43:47.667299+00:00", "meta": {"OBJECT_NAME": "COSMOS 2251 DEB", "OBJECT_ID": "1993-036ARD", "EPOCH": "2025-12-10T22:34:23.771424", "MEAN_MOTION": 14.6488118, "ECCENTRICITY": 0.0077011, "INCLINATION": 74.0369, "RA_OF_ASC_NODE": 219.5063, "ARG_OF_PERICENTER": 338.0428, "MEAN_ANOMALY": 21.7445, "EPHEMERIS_TYPE": 0, "CLASSIFICATION_TYPE": "U", "NORAD_CAT_ID": 35759, "ELEMENT_SET_NO": 999, "REV_AT_EPOCH": 66109, "BSTAR": 0.00043711, "MEAN_MOTION_DOT": 2.407e-05, "MEAN_MOTION_DDOT": 0}, "tle": {"line1": "1 35759U 93036ARD 25344.94055291  .00002407  00000+0  43711-3 0  9994", "line2": "2 35759  74.0369 219.5063 0077011 338.0428  21.7445 14.64881180661096"}}, "geometry": {"type": "Point", "coordinates": [109.18219700892551, -73.21450199628292]}}, {"type": "Feature", "properties": {"norad_id": 35771, "name": "COSMOS 2251 DEB", "group": "cosmos-2251-debris", "lat": 57.78662545503158, "lon": -21.483130116006617, "alt_km": 1007.7211117752513, "timestamp": "2025-12-11T22:43:47.667310+00:00", "meta": {"OBJECT_NAME": "COSMOS 2251 DEB", "OBJECT_ID": "1993-036ARR", "EPOCH": "2025-12-01T22:51:30.244896", "MEAN_MOTION": 14.12926683, "ECCENTRICITY": 0.02319351, "INCLINATION": 74.1552, "RA_OF_ASC_NODE": 329.2812, "ARG_OF_PERICENTER": 270.0606, "MEAN_ANOMALY": 87.396, "EPHEMERIS_TYPE": 0, "CLASSIFICATION_TYPE": "U", "NORAD_CAT_ID": 35771, "ELEMENT_SET_NO": 999, "REV_AT_EPOCH": 82708, "BSTAR": 0.0067662276, "MEAN_MOTION_DOT": 0.00016281, "MEAN_MOTION_DDOT": 0}, "tle": {"line1": "1 35771U 93036ARR 25335.95243339  .00016281  00000+0  67662-2 0  9996", "line2": "2 35771  74.1552 329.2812 0231935 270.0606  87.3960 14.12926683827080"}}, "geometry": {"type": "Point", "coordinates": [-21.483130116006617, 57.78662545503158]}}, {"type": "Feature", "properties": {"norad_id": 35773, "name": "COSMOS 2251 DEB", "group": "cosmos-2251-debris", "lat": 21.0042554510172, "lon": 156.01926319418013, "alt_km": 654.9952360922562, "timestamp": "2025-12-11T22:43:47.667321+00:00", "meta": {"OBJECT_NAME": "COSMOS 2251 DEB", "OBJECT_ID": "1993-036ART", "EPOCH": "2025-12-11T10:30:58.972320", "MEAN_MOTION": 14.62058397, "ECCENTRICITY": 0.00456059, "INCLINATION": 74.0082, "RA_OF_ASC_NODE": 343.3164, "ARG_OF_PERICENTER": 143.7547, "MEAN_ANOMALY": 216.6725, "EPHEMERIS_TYPE": 0, "CLASSIFICATION_TYPE": "U", "NORAD_CAT_ID": 35773, "ELEMENT_SET_NO": 999, "REV_AT_EPOCH": 86820, "BSTAR": 0.00099100233, "MEAN_MOTION_DOT": 5.023e-05, "MEAN_MOTION_DDOT": 0}, "tle": {"line1": "1 35773U 93036ART 25345.43818255  .00005023  00000+0  99100-3 0  9992", "line2": "2 35773  74.0082 343.3164 0045605 143.7547 216.6725 14.62058397868201"}}, "geometry": {"type": "Point", "coordinates": [156.01926319418013, 21.0042554510172]}}, {"type": "Feature", "properties": {"norad_id": 35777, "name": "COSMOS 2251 DEB", "group": "cosmos-2251-debris", "lat": -47.19583278627269, "lon": -54.32146114485064, "alt_km": 1103.1000269319338, "timestamp": "2025-12-11T22:43:47.667331+00:00", "meta": {"OBJECT_NAME": "COSMOS 2251 DEB", "OBJECT_ID": "1993-036ARX", "EPOCH": "2025-12-11T09:28:16.125312", "MEAN_MOTION": 13.41302315, "ECCENTRICITY": 0.04523963, "INCLINATION": 73.7708, "RA_OF_ASC_NODE": 324.8901, "ARG_OF_PERICENTER": 219.9203, "MEAN_ANOMALY": 298.5009, "EPHEMERIS_TYPE": 0, "CLASSIFICATION_TYPE": "U", "NORAD_CAT_ID": 35777, "ELEMENT_SET_NO": 999, "REV_AT_EPOCH": 79666, "BSTAR": 0.00067239561, "MEAN_MOTION_DOT": 6.6e-06, "MEAN_MOTION_DDOT": 0}, "tle": {"line1": "1 35777U 93036ARX 25345.39463108  .00000660  00000+0  67240-3 0  9996", "line2": "2 35777  73.7708 324.8901 0452396 219.9203 298.5009 13.41302315796665"}}, "geometry": {"type": "Point", "coordinates": [-54.32146114485064, -47.19583278627269]}}, {"type": "Feature", "properties": {"norad_id": 35784, "name": "COSMOS 2251 DEB", "group": "cosmos-2251-debris", "lat": -26.70726594952001, "lon": -80.52630153539886, "alt_km": 701.7868350376848, "timestamp": "2025-12-11T22:43:47.667341+00:00", "meta": {"OBJECT_NAME": "COSMOS 2251 DEB", "OBJECT_ID": "1993-036ASE", "EPOCH": "2025-12-11T13:29:37.163616", "MEAN_MOTION": 14.50036581, "ECCENTRICITY": 0.00425182, "INCLINATION": 74.0367, "RA_OF_ASC_NODE": 91.9162, "ARG_OF_PERICENTER": 224.1944, "MEAN_ANOMALY": 135.5818, "EPHEMERIS_TYPE": 0, "CLASSIFICATION_TYPE": "U", "NORAD_CAT_ID": 35784, "ELEMENT_SET_NO": 999, "REV_AT_EPOCH": 65689, "BSTAR": 0.00055568841, "MEAN_MOTION_DOT": 2.151e-05, "MEAN_MOTION_DDOT": 0}, "tle": {"line1": "1 35784U 93036ASE 25345.56223569  .00002151  00000+0  55569-3 0  9996", "line2": "2 35784  74.0367  91.9162 0042518 224.1944 135.5818 14.50036581656898"}}, "geometry": {"type": "Point", "coordinates": [-80.52630153539886, -26.70726594952001]}}, {"type": "Feature", "properties": {"norad_id": 35786, "name": "COSMOS 2251 DEB", "group": "cosmos-2251-debris", "lat": 71.12575422387073, "lon": 102.28321475800051, "alt_km": 668.1698992949023, "timestamp": "2025-12-11T22:43:47.667351+00:00", "meta": {"OBJECT_NAME": "COSMOS 2251 DEB", "OBJECT_ID": "1993-036ASG", "EPOCH": "2025-12-11T14:10:39.925632", "MEAN_MOTION": 14.66207528, "ECCENTRICITY": 0.00341301, "INCLINATION": 74.0141, "RA_OF_ASC_NODE": 45.9861, "ARG_OF_PERICENTER": 176.1122, "MEAN_ANOMALY": 184.032, "EPHEMERIS_TYPE": 0, "CLASSIFICATION_TYPE": "U", "NORAD_CAT_ID": 35786, "ELEMENT_SET_NO": 999, "REV_AT_EPOCH": 73391, "BSTAR": 0.0016405904, "MEAN_MOTION_DOT": 9.091e-05, "MEAN_MOTION_DDOT": 0}, "tle": {"line1": "1 35786U 93036ASG 25345.59073988  .00009091  00000+0  16406-2 0  9995", "line2": "2 35786  74.0141  45.9861 0034130 176.1122 184.0320 14.66207528733914"}}, "geometry": {"type": "Point", "coordinates": [102.28321475800051, 71.12575422387073]}}, {"type": "Feature", "properties": {"norad_id": 35789, "name": "COSMOS 2251 DEB", "group": "cosmos-2251-debris", "lat": -37.57134142016994, "lon": 118.54429369146608, "alt_km": 810.6262026829181, "timestamp": "2025-12-11T22:43:47.667362+00:00", "meta": {"OBJECT_NAME": "COSMOS 2251 DEB", "OBJECT_ID": "1993-036ASK", "EPOCH": "2025-12-10T13:56:40.706016", "MEAN_MOTION": 14.35983063, "ECCENTRICITY": 0.0047241, "INCLINATION": 74.0389, "RA_OF_ASC_NODE": 288.3315, "ARG_OF_PERICENTER": 28.3225, "MEAN_ANOMALY": 332.048, "EPHEMERIS_TYPE": 0, "CLASSIFICATION_TYPE": "U", "NORAD_CAT_ID": 35789, "ELEMENT_SET_NO": 999, "REV_AT_EPOCH": 61196, "BSTAR": 0.00023036, "MEAN_MOTION_DOT": 6.52e-06, "MEAN_MOTION_DDOT": 0}, "tle": {"line1": "1 35789U 93036ASK 25344.58102669  .00000652  00000+0  23036-3 0  9997", "line2": "2 35789  74.0389 288.3315 0047241  28.3225 332.0480 14.35983063611960"}}, "geometry": {"type": "Point", "coordinates": [118.54429369146608, -37.57134142016994]}}, {"type": "Feature", "properties": {"norad_id": 35793, "name": "COSMOS 2251 DEB", "group": "cosmos-2251-debris", "lat": 28.31586846331393, "lon": -127.12866961641687, "alt_km": 630.3218828798254, "timestamp": "2025-12-11T22:43:47.667371+00:00", "meta": {"OBJECT_NAME": "COSMOS 2251 DEB", "OBJECT_ID": "1993-036ASP", "EPOCH": "2025-12-11T14:14:11.171904", "MEAN_MOTION": 14.78636291, "ECCENTRICITY": 0.00026835, "INCLINATION": 74.0409, "RA_OF_ASC_NODE": 62.436, "ARG_OF_PERICENTER": 124.0966, "MEAN_ANOMALY": 303.196, "EPHEMERIS_TYPE": 0, "CLASSIFICATION_TYPE": "U", "NORAD_CAT_ID": 35793, "ELEMENT_SET_NO": 999, "REV_AT_EPOCH": 65780, "BSTAR": 0.0026518543, "MEAN_MOTION_DOT": 0.00019452, "MEAN_MOTION_DDOT": 0}, "tle": {"line1": "1 35793U 93036ASP 25345.59318486  .00019452  00000+0  26519-2 0  9996", "line2": "2 35793  74.0409  62.4360 0002683 124.0966 303.1960 14.78636291657806"}}, "geometry": {"type": "Point", "coordinates": [-127.12866961641687, 28.31586846331393]}}, {"type": "Feature", "properties": {"norad_id": 35824, "name": "COSMOS 2251 DEB", "group": "cosmos-2251-debris", "lat": 60.605445918882104, "lon": 81.11909870985298, "alt_km": 865.3602970804377, "timestamp": "2025-12-11T22:43:47.667382+00:00", "meta": {"OBJECT_NAME": "COSMOS 2251 DEB", "OBJECT_ID": "1993-036ASW", "EPOCH": "2025-12-08T11:24:31.157568", "MEAN_MOTION": 13.883958, "ECCENTRICITY": 0.02494458, "INCLINATION": 73.8458, "RA_OF_ASC_NODE": 56.1203, "ARG_OF_PERICENTER": 143.0234, "MEAN_ANOMALY": 218.8382, "EPHEMERIS_TYPE": 0, "CLASSIFICATION_TYPE": "U", "NORAD_CAT_ID": 35824, "ELEMENT_SET_NO": 999, "REV_AT_EPOCH": 84168, "BSTAR": 0.0020429183, "MEAN_MOTION_DOT": 3.116e-05, "MEAN_MOTION_DDOT": 0}, "tle": {"line1": "1 35824U 93036ASW 25342.47536062  .00003116  00000+0  20429-2 0  9991", "line2": "2 35824  73.8458  56.1203 0249445 143.0234 218.8382 13.88395800841685"}}, "geometry": {"type": "Point", "coordinates": [81.11909870985298, 60.605445918882104]}}, {"type": "Feature", "properties": {"norad_id": 35825, "name": "COSMOS 2251 DEB", "group": "cosmos-2251-debris", "lat": 48.75855231232607, "lon": -55.01311985685064, "alt_km": 1078.1151578402505, "timestamp": "2025-12-11T22:43:47.667392+00:00", "meta": {"OBJECT_NAME": "COSMOS 2251 DEB", "OBJECT_ID": "1993-036ASX", "EPOCH": "2025-12-06T17:43:31.257408", "MEAN_MOTION": 13.70908059, "ECCENTRICITY": 0.03529553, "INCLINATION": 74.1125, "RA_OF_ASC_NODE": 152.5025, "ARG_OF_PERICENTER": 249.6557, "MEAN_ANOMALY": 106.6316, "EPHEMERIS_TYPE": 0, "CLASSIFICATION_TYPE": "U", "NORAD_CAT_ID": 35825, "ELEMENT_SET_NO": 999, "REV_AT_EPOCH": 82426, "BSTAR": 0.0026115912, "MEAN_MOTION_DOT": 3.599e-05, "MEAN_MOTION_DDOT": 0}, "tle": {"line1": "1 35825U 93036ASX 25340.73855622  .00003599  00000+0  26116-2 0  9999", "line2": "2 35825  74.1125 152.5025 0352955 249.6557 106.6316 13.70908059824269"}}, "geometry": {"type": "Point", "coordinates": [-55.01311985685064, 48.75855231232607]}}]}